OPTICUBE 04             
1 41851U 16067D   19159.51922640 -.00000390  00000-0 -28747-4 0  9999
2 41851  97.9156 257.0080 0010031  62.6229 297.6011 14.96802032140390
AEROCUBE 8D             
1 41852U 16067E   19159.52136951 -.00000196  00000-0 -11839-4 0  9991
2 41852  97.9165 256.8353 0010749  62.8643 297.3673 14.96707852140372
AEROCUBE 8C             
1 41853U 16067F   19159.47720335  .00000542  00000-0  52809-4 0  9996
2 41853  97.9164 256.7272 0011274  65.7655 294.4743 14.96671595140369
PROMETHEUS 2-1          
1 41854U 16067G   19159.51285823 -.00000246  00000-0 -16129-4 0  9998
2 41854  97.9176 256.8936 0011604  63.3078 296.9330 14.96888178140378
PROMETHEUS 2-3          
1 41855U 16067H   19159.31469208 -.00000235  00000-0 -15122-4 0  9998
2 41855  97.9178 256.7082 0011740  64.1497 296.0934 14.96892015140340
INS-1B                  
1 41954U 17008G   19158.72710539  .00001062  00000-0  46858-4 0  9991
2 41954  97.4004 223.9130 0009343 173.5806 186.5553 15.23915239128136
BGUSAT                  
1 41999U 17008BD  19158.85784607  .00001785  00000-0  72093-4 0  9993
2 41999  97.4076 226.3624 0007951 185.1618 174.9540 15.26063939127648
DIDO-2                  
1 42000U 17008BE  19159.24119892  .00000743  00000-0  33701-4 0  9995
2 42000  97.4016 224.9656 0008144 189.9013 170.2065 15.23876022127611
PEASSS                  
1 42015U 17008BV  19158.75215441  .00000901  00000-0  39175-4 0  9990
2 42015  97.4025 225.4213 0005846 193.2693 166.8392 15.24831940128087
AL-FARABI 1             
1 42016U 17008BW  19158.75551054  .00001174  00000-0  49261-4 0  9994
2 42016  97.4039 225.9520 0005770 191.7844 168.3260 15.25457184128239
NAYIF-1 (EO-88)         
1 42017U 17008BX  19159.26802144  .00001222  00000-0  51084-4 0  9991
2 42017  97.4036 226.4691 0005783 189.9519 170.1605 15.25491712128334
ALTAIR PATHFINDER       
1 42711U 98067LS  19159.54171142  .00031373  00000-0  16762-3 0  9997
2 42711  51.6352 342.3996 0002315 121.4771 238.6457 15.80073325117489
ZA-AEROSAT              
1 42713U 98067LU  19151.03730059  .02928871  12128-4  58594-3 0  9990
2 42713  51.6172 356.2792 0012791 275.7272  84.2292 16.30383675116521
NJUST-1                 
1 42722U 98067MB  19159.46963005  .00152149  20647-4  32527-3 0  9992
2 42722  51.6356 322.7849 0003343 240.3840 167.7610 15.98280035116809
NSIGHT                  
1 42726U 98067MF  19159.02516396  .00017932  00000-0  14462-3 0  9990
2 42726  51.6367   3.2560 0005343 135.3728 224.7701 15.70956583116146
UCLSAT                  
1 42765U 17036A   19158.82567972  .00000912  00000-0  42075-4 0  9995
2 42765  97.3518 217.0679 0009715 267.5682  92.4442 15.22712658109407
LITUANICASAT-2          
1 42768U 17036D   19158.73910094  .00001565  00000-0  69921-4 0  9999
2 42768  97.3553 216.5787 0013396 256.8368 103.1374 15.22741600108643
AALTO-1                 
1 42775U 17036L   19158.74391241  .00000586  00000-0  29197-4 0  9998
2 42775  97.3503 215.7624 0012317 257.1548 102.8312 15.21315658108549
URSA MAIOR              
1 42776U 17036M   19159.16600195  .00000651  00000-0  31993-4 0  9997
2 42776  97.3512 216.3184 0012148 255.3443 104.6446 15.21446736108612
COMPASS 2               
1 42777U 17036N   19158.88952140  .00001250  00000-0  56313-4 0  9995
2 42777  97.3551 217.1847 0010837 257.2759 102.7267 15.22848463108620
DIAMOND RED             
1 42783U 17036U   19158.86708519  .00000777  00000-0  36830-4 0  9994
2 42783  97.3518 216.7195 0010411 268.5261  91.4783 15.22172244108604
PEGASUS                 
1 42784U 17036V   19158.84823980  .00000872  00000-0  40635-4 0  9997
2 42784  97.3522 216.9148 0010312 268.0725  91.9331 15.22461336108618
DIAMOND GREEN           
1 42785U 17036W   19159.39180171  .00000783  00000-0  37083-4 0  9991
2 42785  97.3520 217.2562 0010312 267.1184  92.8872 15.22174120108678
DIAMOND BLUE            
1 42786U 17036X   19158.73349705  .00000755  00000-0  35886-4 0  9997
2 42786  97.3520 216.6109 0010153 270.1250  89.8823 15.22170217108653
NUDTSAT                 
1 42787U 17036Y   19159.50976913  .00001341  00000-0  59256-4 0  9990
2 42787  97.3540 218.2200 0009772 267.3260  92.6860 15.23409840108594
SUCHAI                  
1 42788U 17036Z   19159.38394378  .00001035  00000-0  47124-4 0  9997
2 42788  97.3526 217.7304 0009881 264.8746  95.1363 15.22871494108784
SKCUBE                  
1 42789U 17036AA  19158.80763757  .00000965  00000-0  44264-4 0  9998
2 42789  97.3523 217.1114 0009748 267.4972  92.5149 15.22772855108613
VZLUSAT-1               
1 42790U 17036AB  19158.70838103  .00001324  00000-0  58541-4 0  9990
2 42790  97.3537 217.4395 0009288 266.6619  93.3556 15.23408516108625
ROBUSTA-1B              
1 42792U 17036AD  19159.39673341  .00001003  00000-0  45670-4 0  9992
2 42792  97.3523 217.8325 0009321 265.7800  94.2371 15.22938377108727
CICERO 6                
1 42793U 17036AE  19158.73094162  .00000682  00000-0  32355-4 0  9996
2 42793  97.3507 216.9769 0008581 270.8054  89.2199 15.22549374108689
D-SAT                   
1 42794U 17036AF  19159.07060654  .00000360  00000-0  36622-4 0  9998
2 42794  97.5403 204.2415 0126764 176.3595 183.8577 14.91088632106756
MAZAALAI (NUMSAT-1)     
1 42822U 98067MW  19131.43194823  .10190864  12355-4  76666-3 0  9990
2 42822  51.6054 100.7046 0005179 246.5694 204.7401 16.39672911105736
NIGERIAEDUSAT-1         
1 42824U 98067MY  19133.12526632  .12220275  12529-4  51637-3 0  9993
2 42824  51.6091  92.5367 0003545 299.4874 174.6355 16.43636834105973
CORVUS BC2              
1 42846U 17042X   19159.28375025 -.00000039  00000-0  14129-5 0  9990
2 42846  97.5671  53.7008 0011237  89.5919 270.6588 14.91969131103463
CORVUS BC1              
1 42847U 17042Y   19159.50593975  .00000174  00000-0  22427-4 0  9990
2 42847  97.5672  54.0187 0010886  88.5377 271.7089 14.92069103103495
MIRATA                  
1 43015U 17073C   19159.33293364  .00000464  00000-0  41853-4 0  9998
2 43015  97.7199  80.9516 0255052 191.2351 168.3102 14.78955481 83764
MAKERSAT 0              
1 43016U 17073D   19159.27768244  .00000319  00000-0  30484-4 0  9993
2 43016  97.7231  81.0968 0257234 191.7530 167.7607 14.78717376 83743
ASTERIA                 
1 43020U 98067NH  19159.04235316  .00020974  00000-0  17402-3 0  9997
2 43020  51.6432  14.0699 0002567  95.7227 264.4063 15.70158128 88181
DELLINGR (RBLE)         
1 43021U 98067NJ  19159.22570228  .00007206  00000-0  83719-4 0  9990
2 43021  51.6391  24.9420 0002853  77.0403 283.0910 15.62954869 88056
AEROCUBE 7B (OCSD B)    
1 43042U 17071F   19158.86994423  .00002605  00000-0  71604-4 0  9993
2 43042  51.6383 105.8234 0005197 110.0529 250.1016 15.41119410 84413
AEROCUBE 7C (OCSD C)    
1 43043U 17071G   19159.45359555  .00002658  00000-0  72857-4 0  9990
2 43043  51.6384 102.9844 0005370 115.8955 244.2584 15.41126317 84473
CHEFSAT                 
1 43044U 17071H   19159.46120129  .00003743  00000-0  90680-4 0  9995
2 43044  51.6387  97.8970 0005241 112.6749 247.4792 15.43710580 84549
ASGARDIA 1              
1 43049U 17071N   19159.40635751  .00002169  00000-0  60965-4 0  9990
2 43049  51.6392 102.6970 0002776 125.9766 234.1477 15.41254736 84469
ISARA                   
1 43050U 17071P   19159.40887089  .00003663  00000-0  90343-4 0  9998
2 43050  51.6380  99.0077 0002676 119.0880 241.0374 15.43223388 84515
PROPCUBE 2 (FAUNA)      
1 43052U 17071R   19158.83045924  .00002455  00000-0  67162-4 0  9991
2 43052  51.6388 104.8693 0002738 119.0271 241.0989 15.41524520 84384
CORVUS BC3              
1 43118U 18004H   19158.76372282  .00000595  00000-0  28463-4 0  9997
2 43118  97.4871 226.1565 0008878 294.0962  65.9345 15.22823475 77819
MICROMAS-2A             
1 43131U 18004W   19159.43564258  .00001444  00000-0  62463-4 0  9995
2 43131  97.4897 227.4900 0007804 293.5895  66.4522 15.24077120 77954
CICERO 7                
1 43143U 18004AJ  19158.73783951  .00001210  00000-0  52595-4 0  9999
2 43143  97.4883 227.0068 0006152 309.8678  50.2018 15.24216269 77868
GOMX-4B                 
1 43196U 18015E   19158.93554119  .00000266  00000-0  13918-4 0  9999
2 43196  97.3866 286.6253 0019393 349.3693  10.7131 15.23931832 74706
GOMX-4A                 
1 43197U 18015F   19159.32714145  .00000349  00000-0  17292-4 0  9992
2 43197  97.3904 287.0380 0018815 350.3326  93.4750 15.24025995 74776
1KUNS-PF                
1 43466U 98067NP  19159.06564088  .00016394  00000-0  16345-3 0  9990
2 43466  51.6379  28.3496 0001645 106.1395 253.9782 15.65816613 61251
UBAKUSAT                
1 43467U 98067NQ  19159.11643315  .00008773  00000-0  10210-3 0  9995
2 43467  51.6381  31.6871 0002677  53.5913 306.5328 15.62579950 61221
BATSU-CS1 (IRAZU)       
1 43468U 98067NR  19159.07354932  .00022998  00000-0  20371-3 0  9999
2 43468  51.6371  25.3825 0001699 118.2187 241.8981 15.68498672161285
CUBERRT                 
1 43546U 98067NU  19158.90891672  .00026470  00000-0  27833-3 0  9993
2 43546  51.6386  34.0489 0005900  95.7507 264.4161 15.64105198 51301
TEMPEST-D               
1 43547U 98067NV  19159.27199700  .00003515  00000-0  52881-4 0  9995
2 43547  51.6394  38.7219 0006406  85.3839 274.7885 15.57846262 50951
RAINCUBE                
1 43548U 98067NW  19159.29390679  .00008835  00000-0  10833-3 0  9996
2 43548  51.6377  35.1063 0006387  98.7417 261.4301 15.61189280 51456
HALOSAT                 
1 43549U 98067NX  19158.91331306  .00011272  00000-0  13693-3 0  9993
2 43549  51.6384  37.0743 0006349  98.5708 261.6005 15.61103461 50954
ENDUROSAT ONE           
1 43551U 98067NZ  19159.13692733  .00012045  00000-0  13777-3 0  9997
2 43551  51.6384  34.0721 0006669 107.5976 252.5747 15.62597456 51420
EQUISAT                 
1 43552U 98067PA  19159.10903856  .00009933  00000-0  11987-3 0  9999
2 43552  51.6394  35.4033 0006972 106.0515 254.1247 15.61437294 51361
